[{"OBJECT_NAME":"HBTSS-SV2","OBJECT_ID":"2024-028A","EPOCH":"2026-03-09T12:33:04.893984","MEAN_MOTION":13.70447074,"ECCENTRICITY":0.0019418,"INCLINATION":39.99,"RA_OF_ASC_NODE":141.7809,"ARG_OF_PERICENTER":26.2746,"MEAN_ANOMALY":333.8982,"EPHEMERIS_TYPE":0,"CLASSIFICATION_TYPE":"U","NORAD_CAT_ID":58955,"ELEMENT_SET_NO":999,"REV_AT_EPOCH":10339,"BSTAR":0.0002328,"MEAN_MOTION_DOT":1.3e-6,"MEAN_MOTION_DDOT":0},{"OBJECT_NAME":"USA 23","OBJECT_ID":"1987-043E","EPOCH":"2026-03-09T21:08:44.965536","MEAN_MOTION":13.85441647,"ECCENTRICITY":0.07926517,"INCLINATION":63.2919,"RA_OF_ASC_NODE":275.6302,"ARG_OF_PERICENTER":103.3692,"MEAN_ANOMALY":265.6899,"EPHEMERIS_TYPE":0,"CLASSIFICATION_TYPE":"U","NORAD_CAT_ID":18009,"ELEMENT_SET_NO":999,"REV_AT_EPOCH":33172,"BSTAR":0.00082001328,"MEAN_MOTION_DOT":0.00014079,"MEAN_MOTION_DDOT":0}]
